[{"OBJECT_NAME":"OBJECT A","OBJECT_ID":"2024-094A","EPOCH":"2026-03-07T00:47:02.877216","MEAN_MOTION":15.17421746,"ECCENTRICITY":0.00076871,"INCLINATION":97.396,"RA_OF_ASC_NODE":139.425,"ARG_OF_PERICENTER":177.7286,"MEAN_ANOMALY":182.3984,"EPHEMERIS_TYPE":0,"CLASSIFICATION_TYPE":"U","NORAD_CAT_ID":59805,"ELEMENT_SET_NO":999,"REV_AT_EPOCH":9968,"BSTAR":1.8416853e-5,"MEAN_MOTION_DOT":3.03e-6,"MEAN_MOTION_DDOT":0},{"OBJECT_NAME":"OBJECT A","OBJECT_ID":"2025-226A","EPOCH":"2026-03-09T23:47:47.685696","MEAN_MOTION":15.14747363,"ECCENTRICITY":0.00155421,"INCLINATION":97.6484,"RA_OF_ASC_NODE":148.8014,"ARG_OF_PERICENTER":127.7306,"MEAN_ANOMALY":232.5337,"EPHEMERIS_TYPE":0,"CLASSIFICATION_TYPE":"U","NORAD_CAT_ID":65938,"ELEMENT_SET_NO":999,"REV_AT_EPOCH":2267,"BSTAR":0.00057458801,"MEAN_MOTION_DOT":0.00010623,"MEAN_MOTION_DDOT":0}]
